{
  "norad_id": 41550,
  "name": "GSAT0210 (GALILEO 13)",
  "history": [
    {
      "epoch": "2026-03-27T12:26:38.685120",
      "apogee_km": 23227.560698295358,
      "perigee_km": 23216.823474922483,
      "latitude_deg": -8.790239331251279,
      "longitude_deg": 88.77631680015475,
      "semi_major_axis_km": 29600.32908660892,
      "eccentricity": 0.00018137,
      "inclination_deg": 55.1217,
      "raan_deg": 223.9368,
      "arg_perigee_deg": 210.8159,
      "mean_anomaly_deg": 149.1228,
      "mean_motion_rev_day": 1.70473922
    }
  ]
}